SOSO-4
1 00004U          23274.66666667  .00000000  00000-0  00000-0 0 00004
2 00004 097.4153 167.6514 0009339 322.4652 253.5376 15.20925382000012
